NORAD_CAT_ID,OBJECT_NAME,OBJECT_TYPE,EPOCH,MEAN_MOTION,ECCENTRICITY,INCLINATION,RA_OF_ASC_NODE,ARG_OF_PERICENTER,MEAN_ANOMALY,BSTAR,MEAN_MOTION_DOT,MEAN_MOTION_DDOT,TLE_LINE0,TLE_LINE1,TLE_LINE2,SEMIMAJOR_AXIS,PERIOD,APOGEE,PERIGEE,DECAYED
50159.0,STARLINK-3297,PAYLOAD,2022-05-28 14:00:01,15.08855195,0.0002226,53.2151,339.1604,37.3844,292.332,0.00056679,8.748e-05,0.0,0 STARLINK-3297,1 50159U 21125D   22148.58334491  .00008748  00000-0  56679-3 0  9998,2 50159  53.2151 339.1604 0002226  37.3844 292.3320 15.08855195  1308,6917.834,95.437,541.239,538.159,0.0
50159.0,STARLINK-3297,PAYLOAD,2022-05-28 22:00:00,15.08848712,0.0002413,53.2151,337.6656,32.3992,308.94,-0.00029744,-5.02e-05,0.0,0 STARLINK-3297,1 50159U 21125D   22148.91667824 -.00005020  00000-0 -29744-3 0  9999,2 50159  53.2151 337.6656 0002413  32.3992 308.9400 15.08848712  1305,6917.854,95.437,541.388,538.049,0.0
50159.0,STARLINK-3297,PAYLOAD,2022-05-29 06:00:02,15.08836529,0.0002239,53.2151,336.1674,31.322,321.6833,-0.0018955,-0.00030327,0.0,0 STARLINK-3297,1 50159U 21125D   22149.25002315 -.00030327  00000-0 -18955-2 0  9994,2 50159  53.2151 336.1674 0002239  31.3220 321.6833 15.08836529 24511,6917.891,95.438,541.305,538.207,0.0
50159.0,STARLINK-3297,PAYLOAD,2022-05-29 14:00:01,15.08836198,0.0002187,53.2153,334.6708,33.111,331.3949,-0.00088562,-0.00014354,0.0,0 STARLINK-3297,1 50159U 21125D   22149.58334491 -.00014354  00000-0 -88562-3 0  9997,2 50159  53.2153 334.6708 0002187  33.1110 331.3949 15.08836198  1304,6917.892,95.438,541.27,538.244,0.0
50159.0,STARLINK-3297,PAYLOAD,2022-05-29 22:00:00,15.08798052,0.0002391,53.2154,333.176,29.2076,346.8904,0.0013133,0.00020651,0.0,0 STARLINK-3297,1 50159U 21125D   22149.91667824  .00020651  00000-0  13133-2 0  9999,2 50159  53.2154 333.1760 0002391  29.2076 346.8904 15.08798052 24618,6918.009,95.44,541.528,538.22,0.0
50159.0,STARLINK-3297,PAYLOAD,2022-05-30 14:00:01,15.08833941,0.0002227,53.2159,330.1815,32.2718,6.9412,-0.00052049,-8.561e-05,0.0,0 STARLINK-3297,1 50159U 21125D   22150.58334491 -.00008561  00000-0 -52049-3 0  9993,2 50159  53.2159 330.1815 0002227  32.2718   6.9412 15.08833941  1302,6917.899,95.438,541.305,538.2230000000002,0.0
50159.0,STARLINK-3297,PAYLOAD,2022-05-30 22:00:00,15.08804907,0.0002436,53.2158,328.6865,29.8446,20.9557,0.0031124,0.00049548,0.0,0 STARLINK-3297,1 50159U 21125D   22150.91667824  .00049548  00000-0  31124-2 0  9997,2 50159  53.2158 328.6865 0002436  29.8446  20.9557 15.08804907  1306,6917.988,95.44,541.538,538.1669999999998,0.0
50159.0,STARLINK-3297,PAYLOAD,2022-05-31 06:00:02,15.08829352,0.0002255,53.2161,327.1884,31.9907,30.4502,0.00052213,8.029e-05,0.0,0 STARLINK-3297,1 50159U 21125D   22151.25002315  .00008029  00000-0  52213-3 0  9995,2 50159  53.2161 327.1884 0002255  31.9907  30.4502 15.08829352 24829,6917.913000000001,95.438,541.3380000000002,538.2180000000002,0.0
50159.0,STARLINK-3297,PAYLOAD,2022-05-31 13:40:26,15.08837298,0.0002413,53.217,325.753,38.0769,322.0393,-3.8989e-05,-9.09e-06,0.0,0 STARLINK-3297,1 50159U 21125D   22151.56974868 -.00000909  00000-0 -38989-4 0  9996,2 50159  53.2170 325.7530 0002413  38.0769 322.0393 15.08837298 24861,6917.889,95.438,541.423,538.0840000000002,0.0
50159.0,STARLINK-3297,PAYLOAD,2022-05-31 21:37:22,15.08832763,0.000238,53.2169,324.2667,36.7806,323.3349,7.6647e-05,9.31e-06,0.0,0 STARLINK-3297,1 50159U 21125D   22151.90094952  .00000931  00000-0  76647-4 0  9997,2 50159  53.2169 324.2667 0002380  36.7806 323.3349 15.08832763 28450,6917.903,95.438,541.414,538.121,0.0
50159.0,STARLINK-3297,PAYLOAD,2022-06-01 14:00:01,15.08852796,0.0002211,53.2163,321.203,32.4058,76.3663,-0.0013119,-0.00021114,0.0,0 STARLINK-3297,1 50159U 21125D   22152.58334491 -.00021114  00000-0 -13119-2 0  9998,2 50159  53.2163 321.2030 0002211  32.4058  76.3663 15.08852796 25022,6917.840999999999,95.437,541.236,538.177,0.0
50159.0,STARLINK-3297,PAYLOAD,2022-06-01 20:00:01,15.088285999999998,0.0002388,53.2162,320.082,30.6118,356.8659,0.0014899,0.00023496,0.0,0 STARLINK-3297,1 50159U 21125D   22152.83334491  .00023496  00000-0  14899-2 0  9995,2 50159  53.2162 320.0820 0002388  30.6118 356.8659 15.08828600  1300,6917.915,95.438,541.432,538.128,0.0
50159.0,STARLINK-3297,PAYLOAD,2022-06-02 18:08:10,15.08833935,0.0002277,53.2168,315.9404,34.881,325.2331,-3.5054e-05,-8.46e-06,0.0,0 STARLINK-3297,1 50159U 21125D   22153.75568281 -.00000846  00000-0 -35054-4 0  9997,2 50159  53.2168 315.9404 0002277  34.8810 325.2331 15.08833935 25196,6917.899,95.438,541.339,538.189,0.0
50159.0,STARLINK-3297,PAYLOAD,2022-06-02 19:43:34,15.08833213,0.0002322,53.2172,315.6437,38.0984,322.0172,-3.0922e-05,-7.8e-06,0.0,0 STARLINK-3297,1 50159U 21125D   22153.82192396 -.00000780  00000-0 -30922-4 0  9991,2 50159  53.2172 315.6437 0002322  38.0984 322.0172 15.08833213 28744,6917.901,95.438,541.372,538.16,0.0
50159.0,STARLINK-3297,PAYLOAD,2022-06-03 10:02:01,15.08838042,0.0001977,53.217,312.9667,27.7663,332.3434,2.1555e-05,5.5e-07,0.0,0 STARLINK-3297,1 50159U 21125D   22154.41807848  .00000055  00000-0  21555-4 0  9997,2 50159  53.2170 312.9667 0001977  27.7663 332.3434 15.08838042 28831,6917.886,95.438,541.119,538.384,0.0
50159.0,STARLINK-3297,PAYLOAD,2022-06-03 19:34:20,15.08840762,0.0002334,53.2168,311.1822,34.4642,325.6501,8.3111e-05,1.035e-05,0.0,0 STARLINK-3297,1 50159U 21125D   22154.81551584  .00001035  00000-0  83111-4 0  9999,2 50159  53.2168 311.1822 0002334  34.4642 325.6501 15.08840762 25358,6917.878000000002,95.438,541.3580000000002,538.128,0.0
50159.0,STARLINK-3297,PAYLOAD,2022-06-04 09:52:48,15.08823231,0.0002308,53.2167,308.5059,36.0012,324.1135,0.00040264,6.123e-05,0.0,0 STARLINK-3297,1 50159U 21125D   22155.41167721  .00006123  00000-0  40264-3 0  9996,2 50159  53.2167 308.5059 0002308  36.0012 324.1135 15.08823231 25448,6917.932,95.439,541.393,538.2,0.0
50159.0,STARLINK-3297,PAYLOAD,2022-06-05 22:00:00,15.08842421,0.0002429,53.215,301.7515,28.8101,230.6879,-0.00032222,-5.413e-05,0.0,0 STARLINK-3297,1 50159U 21125D   22156.91667824 -.00005413  00000-0 -32222-3 0  9999,2 50159  53.2150 301.7515 0002429  28.8101 230.6879 15.08842421 25677,6917.873000000001,95.437,541.418,538.058,0.0
50159.0,STARLINK-3297,PAYLOAD,2022-06-06 14:00:01,15.08852735,0.0002363,53.2154,298.758,31.6786,251.0022,-0.0012917,-0.00020795,0.0,0 STARLINK-3297,1 50159U 21125D   22157.58334491 -.00020795  00000-0 -12917-2 0  9992,2 50159  53.2154 298.7580 0002363  31.6786 251.0022 15.08852735  1306,6917.840999999999,95.437,541.341,538.072,0.0
50159.0,STARLINK-3297,PAYLOAD,2022-06-06 19:06:41,15.08840021,0.0002407,53.2172,297.8011,35.3066,324.8085,3.1004e-05,2.05e-06,0.0,0 STARLINK-3297,1 50159U 21125D   22157.79631120  .00000205  00000-0  31004-4 0  9996,2 50159  53.2172 297.8011 0002407  35.3066 324.8085 15.08840021 29343,6917.88,95.438,541.41,538.08,0.0
50159.0,STARLINK-3297,PAYLOAD,2022-06-07 11:00:32,15.08842817,0.0002412,53.2171,294.8273,35.9983,324.1171,2.2375e-06,-2.53e-06,0.0,0 STARLINK-3297,1 50159U 21125D   22158.45870900 -.00000253  00000-0  22375-5 0  9997,2 50159  53.2171 294.8273 0002412  35.9983 324.1171 15.08842817 25901,6917.871999999999,95.437,541.405,538.068,0.0
50159.0,STARLINK-3297,PAYLOAD,2022-06-07 18:57:28,15.08839372,0.0002404,53.2174,293.3409,36.9258,323.1899,-5.646600000000001e-05,-1.187e-05,0.0,0 STARLINK-3297,1 50159U 21125D   22158.78991258 -.00001187  00000-0 -56466-4 0  9998,2 50159  53.2174 293.3409 0002404  36.9258 323.1899 15.08839372 29492,6917.882,95.438,541.41,538.0840000000002,0.0
50159.0,STARLINK-3297,PAYLOAD,2022-06-08 10:51:19,15.08837948,0.0002208,53.2171,290.3669,33.4256,326.6875,9.5508e-06,-1.36e-06,0.0,0 STARLINK-3297,1 50159U 21125D   22159.45230967 -.00000136  00000-0  95508-5 0  9999,2 50159  53.2171 290.3669 0002208  33.4256 326.6875 15.08837948 29596,6917.887,95.438,541.279,538.224,0.0
50159.0,STARLINK-3297,PAYLOAD,2022-06-08 15:37:29,15.08832858,0.0002312,53.2167,289.4749,32.4003,327.7131,-2.6948e-05,-7.17e-06,0.0,0 STARLINK-3297,1 50159U 21125D   22159.65103580 -.00000717  00000-0 -26948-4 0  9998,2 50159  53.2167 289.4749 0002312  32.4003 327.7131 15.08832858 26087,6917.901999999999,95.438,541.367,538.168,0.0
50159.0,STARLINK-3297,PAYLOAD,2022-06-08 18:48:15,15.08834885,0.0002346,53.2164,288.88,31.7424,328.3709,-4.3618e-05,-9.82e-06,0.0,0 STARLINK-3297,1 50159U 21125D   22159.78351443 -.00000982  00000-0 -43618-4 0  9992,2 50159  53.2164 288.8800 0002346  31.7424 328.3709 15.08834885 29646,6917.896,95.438,541.384,538.138,0.0
50159.0,STARLINK-3297,PAYLOAD,2022-06-09 01:09:47,15.08840637,0.0002315,53.2159,287.69,28.8331,331.2789,-3.8501e-05,-9.01e-06,0.0,0 STARLINK-3297,1 50159U 21125D   22160.04847058 -.00000901  00000-0 -38501-4 0  9991,2 50159  53.2159 287.6900 0002315  28.8331 331.2789 15.08840637 26143,6917.878000000002,95.438,541.345,538.1419999999998,0.0
50159.0,STARLINK-3297,PAYLOAD,2022-06-09 10:42:07,15.08828811,0.0002296,53.2204,285.9103,39.61,320.5059,-2.1955e-05,-6.38e-06,0.0,0 STARLINK-3297,1 50159U 21125D   22160.44592005 -.00000638  00000-0 -21955-4 0  9996,2 50159  53.2204 285.9103 0002296  39.6100 320.5059 15.08828811 29742,6917.915,95.438,541.368,538.191,0.0
50159.0,STARLINK-3297,PAYLOAD,2022-06-09 17:03:40,15.08824292,0.0002339,53.2182,284.7192,36.7738,323.3414,-5.1586e-05,-1.109e-05,0.0,0 STARLINK-3297,1 50159U 21125D   22160.71088618 -.00001109  00000-0 -51586-4 0  9993,2 50159  53.2182 284.7192 0002339  36.7738 323.3414 15.08824292 26242,6917.928000000001,95.439,541.4119999999998,538.175,0.0
50159.0,STARLINK-3297,PAYLOAD,2022-06-10 05:46:45,15.08832411,0.0002261,53.2168,282.3384,30.3501,329.7621,-1.8448e-05,-5.82e-06,0.0,0 STARLINK-3297,1 50159U 21125D   22161.24080260 -.00000582  00000-0 -18448-4 0  9991,2 50159  53.2168 282.3384 0002261  30.3501 329.7621 15.08832411 26326,6917.904,95.438,541.3330000000002,538.2040000000002,0.0
